{"type": "FeatureCollection", "features": [ {"type": "Feature", "properties": {"norad_id": 30597, "name": "FENGYUN 1C DEB", "group": "fengyun-1c-debris", "lat": -8.979963641367105, "lon": -65.30132780041387, "alt_km": 618.163971052003, "timestamp": "2025-12-21T14:40:48.193929+00:00", "meta": {"OBJECT_NAME": "FENGYUN 1C DEB", "OBJECT_ID": "1999-025AMC", "EPOCH": "2025-12-20T19:25:14.730528", "MEAN_MOTION": 14.93090835, "ECCENTRICITY": 0.00463033, "INCLINATION": 98.9411, "RA_OF_ASC_NODE": 292.3619, "ARG_OF_PERICENTER": 137.173, "MEAN_ANOMALY": 223.3108, "EPHEMERIS_TYPE": 0, "CLASSIFICATION_TYPE": "U", "NORAD_CAT_ID": 30597, "ELEMENT_SET_NO": 999, "REV_AT_EPOCH": 98657, "BSTAR": 0.0024964264, "MEAN_MOTION_DOT": 0.00026574, "MEAN_MOTION_DDOT": 0}, "tle": {"line1": "1 30597U 99025AMC 25354.80919827  .00026574  00000+0  24964-2 0  9992", "line2": "2 30597  98.9411 292.3619 0046303 137.1730 223.3108 14.93090835986574"}}, "geometry": {"type": "Point", "coordinates": [-65.30132780041387, -8.979963641367105]}}, {"type": "Feature", "properties": {"norad_id": 30599, "name": "FENGYUN 1C DEB", "group": "fengyun-1c-debris", "lat": -78.19229423956577, "lon": 140.60731890938777, "alt_km": 711.1575001034598, "timestamp": "2025-12-21T14:40:48.193939+00:00", "meta": {"OBJECT_NAME": "FENGYUN 1C DEB", "OBJECT_ID": "1999-025AME", "EPOCH": "2025-12-20T00:12:57.449664", "MEAN_MOTION": 14.19723945, "ECCENTRICITY": 0.03019093, "INCLINATION": 98.602, "RA_OF_ASC_NODE": 5.4391, "ARG_OF_PERICENTER": 323.6948, "MEAN_ANOMALY": 34.4074, "EPHEMERIS_TYPE": 0, "CLASSIFICATION_TYPE": "U", "NORAD_CAT_ID": 30599, "ELEMENT_SET_NO": 999, "REV_AT_EPOCH": 97270, "BSTAR": 0.00050499549, "MEAN_MOTION_DOT": 1.635e-05, "MEAN_MOTION_DDOT": 0}, "tle": {"line1": "1 30599U 99025AME 25354.00899826  .00001635  00000+0  50500-3 0  9999", "line2": "2 30599  98.6020   5.4391 0301909 323.6948  34.4074 14.19723945972704"}}, "geometry": {"type": "Point", "coordinates": [140.60731890938777, -78.19229423956577]}}, {"type": "Feature", "properties": {"norad_id": 30600, "name": "FENGYUN 1C DEB", "group": "fengyun-1c-debris", "lat": -15.503463426136442, "lon": -57.9061480638148, "alt_km": 993.8039815510492, "timestamp": "2025-12-21T14:40:48.193949+00:00", "meta": {"OBJECT_NAME": "FENGYUN 1C DEB", "OBJECT_ID": "1999-025AMF", "EPOCH": "2025-12-20T14:52:23.604960", "MEAN_MOTION": 14.07612594, "ECCENTRICITY": 0.0326796, "INCLINATION": 98.3891, "RA_OF_ASC_NODE": 298.8245, "ARG_OF_PERICENTER": 224.7834, "MEAN_ANOMALY": 132.6533, "EPHEMERIS_TYPE": 0, "CLASSIFICATION_TYPE": "U", "NORAD_CAT_ID": 30600, "ELEMENT_SET_NO": 999, "REV_AT_EPOCH": 94543, "BSTAR": 0.0014756, "MEAN_MOTION_DOT": 4.02e-05, "MEAN_MOTION_DDOT": 0}, "tle": {"line1": "1 30600U 99025AMF 25354.61971765  .00004020  00000+0  14756-2 0  9995", "line2": "2 30600  98.3891 298.8245 0326796 224.7834 132.6533 14.07612594945437"}}, "geometry": {"type": "Point", "coordinates": [-57.9061480638148, -15.503463426136442]}}, {"type": "Feature", "properties": {"norad_id": 30602, "name": "FENGYUN 1C DEB", "group": "fengyun-1c-debris", "lat": 17.7909892017547, "lon": 93.70687054859033, "alt_km": 587.3692485973488, "timestamp": "2025-12-21T14:40:48.193959+00:00", "meta": {"OBJECT_NAME": "FENGYUN 1C DEB", "OBJECT_ID": "1999-025AMH", "EPOCH": "2025-12-21T06:29:08.069856", "MEAN_MOTION": 14.92336816, "ECCENTRICITY": 0.00131337, "INCLINATION": 99.0327, "RA_OF_ASC_NODE": 270.3897, "ARG_OF_PERICENTER": 95.8615, "MEAN_ANOMALY": 32.5948, "EPHEMERIS_TYPE": 0, "CLASSIFICATION_TYPE": "U", "NORAD_CAT_ID": 30602, "ELEMENT_SET_NO": 999, "REV_AT_EPOCH": 97932, "BSTAR": 0.0061255773, "MEAN_MOTION_DOT": 0.00063202, "MEAN_MOTION_DDOT": 0}, "tle": {"line1": "1 30602U 99025AMH 25355.27023229  .00063202  00000+0  61256-2 0  9997", "line2": "2 30602  99.0327 270.3897 0013133  95.8615  32.5948 14.92336816979328"}}, "geometry": {"type": "Point", "coordinates": [93.70687054859033, 17.7909892017547]}}, {"type": "Feature", "properties": {"norad_id": 30603, "name": "FENGYUN 1C DEB", "group": "fengyun-1c-debris", "lat": -81.22767013443921, "lon": 124.16598627247755, "alt_km": 945.5305291133154, "timestamp": "2025-12-21T14:40:48.193971+00:00", "meta": {"OBJECT_NAME": "FENGYUN 1C DEB", "OBJECT_ID": "1999-025AMJ", "EPOCH": "2025-12-20T01:15:06.596352", "MEAN_MOTION": 13.8414322, "ECCENTRICITY": 0.01834493, "INCLINATION": 98.4086, "RA_OF_ASC_NODE": 16.207, "ARG_OF_PERICENTER": 185.4273, "MEAN_ANOMALY": 233.3371, "EPHEMERIS_TYPE": 0, "CLASSIFICATION_TYPE": "U", "NORAD_CAT_ID": 30603, "ELEMENT_SET_NO": 999, "REV_AT_EPOCH": 94977, "BSTAR": 0.0010049027, "MEAN_MOTION_DOT": 1.238e-05, "MEAN_MOTION_DDOT": 0}, "tle": {"line1": "1 30603U 99025AMJ 25354.05215968  .00001238  00000+0  10049-2 0  9991", "line2": "2 30603  98.4086  16.2070 0183449 185.4273 233.3371 13.84143220949770"}}, "geometry": {"type": "Point", "coordinates": [124.16598627247755, -81.22767013443921]}}, {"type": "Feature", "properties": {"norad_id": 30604, "name": "FENGYUN 1C DEB", "group": "fengyun-1c-debris", "lat": 66.2565303758974, "lon": -130.30739813685022, "alt_km": 904.3032818458623, "timestamp": "2025-12-21T14:40:48.193983+00:00", "meta": {"OBJECT_NAME": "FENGYUN 1C DEB", "OBJECT_ID": "1999-025AMK", "EPOCH": "2025-12-19T01:34:07.173120", "MEAN_MOTION": 14.23620654, "ECCENTRICITY": 0.02092952, "INCLINATION": 98.4019, "RA_OF_ASC_NODE": 27.6253, "ARG_OF_PERICENTER": 348.3373, "MEAN_ANOMALY": 39.6079, "EPHEMERIS_TYPE": 0, "CLASSIFICATION_TYPE": "U", "NORAD_CAT_ID": 30604, "ELEMENT_SET_NO": 999, "REV_AT_EPOCH": 97929, "BSTAR": 0.00023851442, "MEAN_MOTION_DOT": 6.35e-06, "MEAN_MOTION_DDOT": 0}, "tle": {"line1": "1 30604U 99025AMK 25353.06536080  .00000635  00000+0  23851-3 0  9999", "line2": "2 30604  98.4019  27.6253 0209295 348.3373  39.6079 14.23620654979292"}}, "geometry": {"type": "Point", "coordinates": [-130.30739813685022, 66.2565303758974]}}, {"type": "Feature", "properties": {"norad_id": 30606, "name": "FENGYUN 1C DEB", "group": "fengyun-1c-debris", "lat": 71.45274230497589, "lon": -149.36471257108835, "alt_km": 542.187722847606, "timestamp": "2025-12-21T14:40:48.193993+00:00", "meta": {"OBJECT_NAME": "FENGYUN 1C DEB", "OBJECT_ID": "1999-025AMM", "EPOCH": "2025-12-20T17:03:30.406176", "MEAN_MOTION": 14.57682996, "ECCENTRICITY": 0.02143389, "INCLINATION": 98.0952, "RA_OF_ASC_NODE": 4.6572, "ARG_OF_PERICENTER": 112.4347, "MEAN_ANOMALY": 309.583, "EPHEMERIS_TYPE": 0, "CLASSIFICATION_TYPE": "U", "NORAD_CAT_ID": 30606, "ELEMENT_SET_NO": 999, "REV_AT_EPOCH": 99358, "BSTAR": 0.00036013358, "MEAN_MOTION_DOT": 2.202e-05, "MEAN_MOTION_DDOT": 0}, "tle": {"line1": "1 30606U 99025AMM 25354.71076859  .00002202  00000+0  36013-3 0  9993", "line2": "2 30606  98.0952   4.6572 0214338 112.4347 309.5830 14.57682996993586"}}, "geometry": {"type": "Point", "coordinates": [-149.36471257108835, 71.45274230497589]}}, {"type": "Feature", "properties": {"norad_id": 30608, "name": "FENGYUN 1C DEB", "group": "fengyun-1c-debris", "lat": -15.418535525391736, "lon": 60.68085616746093, "alt_km": 812.9006944431349, "timestamp": "2025-12-21T14:40:48.194003+00:00", "meta": {"OBJECT_NAME": "FENGYUN 1C DEB", "OBJECT_ID": "1999-025AMP", "EPOCH": "2025-12-21T03:07:33.381408", "MEAN_MOTION": 14.28518532, "ECCENTRICITY": 0.00163272, "INCLINATION": 98.7095, "RA_OF_ASC_NODE": 57.7775, "ARG_OF_PERICENTER": 155.46, "MEAN_ANOMALY": 234.7021, "EPHEMERIS_TYPE": 0, "CLASSIFICATION_TYPE": "U", "NORAD_CAT_ID": 30608, "ELEMENT_SET_NO": 999, "REV_AT_EPOCH": 97559, "BSTAR": 0.00080099738, "MEAN_MOTION_DOT": 1.966e-05, "MEAN_MOTION_DDOT": 0}, "tle": {"line1": "1 30608U 99025AMP 25355.13024747  .00001966  00000+0  80100-3 0  9993", "line2": "2 30608  98.7095  57.7775 0016327 155.4600 234.7021 14.28518532975598"}}, "geometry": {"type": "Point", "coordinates": [60.68085616746093, -15.418535525391736]}}, {"type": "Feature", "properties": {"norad_id": 30609, "name": "FENGYUN 1C DEB", "group": "fengyun-1c-debris", "lat": 43.25017969665091, "lon": -96.32778362331732, "alt_km": 767.845595718265, "timestamp": "2025-12-21T14:40:48.194013+00:00", "meta": {"OBJECT_NAME": "FENGYUN 1C DEB", "OBJECT_ID": "1999-025AMQ", "EPOCH": "2025-12-20T06:08:55.711968", "MEAN_MOTION": 14.11273951, "ECCENTRICITY": 0.01199038, "INCLINATION": 98.5699, "RA_OF_ASC_NODE": 270.5331, "ARG_OF_PERICENTER": 31.8945, "MEAN_ANOMALY": 328.9415, "EPHEMERIS_TYPE": 0, "CLASSIFICATION_TYPE": "U", "NORAD_CAT_ID": 30609, "ELEMENT_SET_NO": 999, "REV_AT_EPOCH": 95834, "BSTAR": 0.0018019998, "MEAN_MOTION_DOT": 3.441e-05, "MEAN_MOTION_DDOT": 0}, "tle": {"line1": "1 30609U 99025AMQ 25354.25620037  .00003441  00000+0  18020-2 0  9991", "line2": "2 30609  98.5699 270.5331 0119903  31.8945 328.9415 14.11273951958345"}}, "geometry": {"type": "Point", "coordinates": [-96.32778362331732, 43.25017969665091]}}, {"type": "Feature", "properties": {"norad_id": 30612, "name": "FENGYUN 1C DEB", "group": "fengyun-1c-debris", "lat": 30.452543459497846, "lon": 172.1447718695358, "alt_km": 487.80539517957095, "timestamp": "2025-12-21T14:40:48.194023+00:00", "meta": {"OBJECT_NAME": "FENGYUN 1C DEB", "OBJECT_ID": "1999-025AMT", "EPOCH": "2025-12-20T22:36:00.305280", "MEAN_MOTION": 15.31352366, "ECCENTRICITY": 0.0026613, "INCLINATION": 99.0821, "RA_OF_ASC_NODE": 345.9286, "ARG_OF_PERICENTER": 320.2515, "MEAN_ANOMALY": 97.3691, "EPHEMERIS_TYPE": 0, "CLASSIFICATION_TYPE": "U", "NORAD_CAT_ID": 30612, "ELEMENT_SET_NO": 999, "REV_AT_EPOCH": 383, "BSTAR": 0.002371, "MEAN_MOTION_DOT": 0.00073108, "MEAN_MOTION_DDOT": 0}, "tle": {"line1": "1 30612U 99025AMT 25354.94167020  .00073108  00000+0  23710-2 0  9998", "line2": "2 30612  99.0821 345.9286 0026613 320.2515  97.3691 15.31352366  3830"}}, "geometry": {"type": "Point", "coordinates": [172.1447718695358, 30.452543459497846]}}]}